*******************************************************************************
Ephemeris / WWW_USER Tue Mar 27 22:25:08 2018 Pasadena, USA      / Horizons    
*******************************************************************************
Target body name: Jupiter Barycenter (5)          {source: DE431mx}
Center body name: Solar System Barycenter (0)     {source: DE431mx}
Center-site name: BODY CENTER
*******************************************************************************
Start time      : A.D. 2018-Feb-08 00:00:00.0000 TDB
Stop  time      : A.D. 2019-Feb-08 00:00:00.0000 TDB
Step-size       : 7200 minutes
*******************************************************************************
Center geodetic : 0.00000000,0.00000000,0.0000000 {E-lon(deg),Lat(deg),Alt(km)}
Center cylindric: 0.00000000,0.00000000,0.0000000 {E-lon(deg),Dxy(km),Dz(km)}
Center radii    : (undefined)                                                  
Output units    : AU-D                                                         
Output type     : GEOMETRIC cartesian states
Output format   : 2 (position and velocity)
Reference frame : ICRF/J2000.0                                                 
Coordinate systm: Ecliptic and Mean Equinox of Reference Epoch                 
*******************************************************************************
JDTDB
   X     Y     Z
   VX    VY    VZ
*******************************************************************************
$$SOE
2458157.500000000 = A.D. 2018-Feb-08 00:00:00.0000 TDB 
  -4.079600974757237E+00 -3.568081896200131E+00  1.060500860839786E-01
   4.878952569354164E-03 -5.321184572144495E-03 -8.704418622683857E-05
2458162.500000000 = A.D. 2018-Feb-13 00:00:00.0000 TDB 
  -4.055111888564797E+00 -3.594604860729756E+00  1.056124103372379E-01
   4.916646987509259E-03 -5.287957677578660E-03 -8.802551191793346E-05
2458167.500000000 = A.D. 2018-Feb-18 00:00:00.0000 TDB 
  -4.030434855515659E+00 -3.620961038274286E+00  1.051698370061736E-01
   4.954131025644535E-03 -5.254469962364994E-03 -8.900321278489965E-05
2458172.500000000 = A.D. 2018-Feb-23 00:00:00.0000 TDB 
  -4.005570931803525E+00 -3.647149127502650E+00  1.047223843224608E-01
   4.991402966765511E-03 -5.220722537030225E-03 -8.997724580940911E-05
2458177.500000000 = A.D. 2018-Feb-28 00:00:00.0000 TDB 
  -3.980521182200364E+00 -3.673167832661343E+00  1.042700707328156E-01
   5.028461096560400E-03 -5.186716522082819E-03 -9.094756799292271E-05
2458182.500000000 = A.D. 2018-Mar-05 00:00:00.0000 TDB 
  -3.955286680042975E+00 -3.699015863624450E+00  1.038129148989022E-01
   5.065303703413321E-03 -5.152453048053702E-03 -9.191413635455558E-05
2458187.500000000 = A.D. 2018-Mar-10 00:00:00.0000 TDB 
  -3.929868507219441E+00 -3.724691935943822E+00  1.033509356972486E-01
   5.101929078431659E-03 -5.117933255525294E-03 -9.287690792946534E-05
2458192.500000000 = A.D. 2018-Mar-15 00:00:00.0000 TDB 
  -3.904267754155412E+00 -3.750194770899396E+00  1.028841522191685E-01
   5.138335515492063E-03 -5.083158295148649E-03 -9.383583976832377E-05
2458197.500000000 = A.D. 2018-Mar-20 00:00:00.0000 TDB 
  -3.878485519800094E+00 -3.775523095549573E+00  1.024125837706797E-01
   5.174521311305551E-03 -5.048129327668413E-03 -9.479088893949277E-05
2458202.500000000 = A.D. 2018-Mar-25 00:00:00.0000 TDB 
  -3.852522911611927E+00 -3.800675642781833E+00  1.019362498724050E-01
   5.210484765473635E-03 -5.012847523981228E-03 -9.574201253270029E-05
2458207.500000000 = A.D. 2018-Mar-30 00:00:00.0000 TDB 
  -3.826381045544065E+00 -3.825651151363672E+00  1.014551702594626E-01
   5.246224180514106E-03 -4.977314065209160E-03 -9.668916766077137E-05
2458212.500000000 = A.D. 2018-Apr-04 00:00:00.0000 TDB 
  -3.800061046029756E+00 -3.850448365993886E+00  1.009693648813487E-01
   5.281737861871351E-03 -4.941530142757569E-03 -9.763231145865040E-05
2458217.500000000 = A.D. 2018-Apr-09 00:00:00.0000 TDB 
  -3.773564045967672E+00 -3.875066037354081E+00  1.004788539018351E-01
   5.317024117935649E-03 -4.905496958350528E-03 -9.857140108170318E-05
2458222.500000000 = A.D. 2018-Apr-14 00:00:00.0000 TDB 
  -3.746891186707106E+00 -3.899502922160333E+00  9.998365769886577E-02
   5.352081260077073E-03 -4.869215724053716E-03 -9.950639370492031E-05
2458227.500000000 = A.D. 2018-Apr-19 00:00:00.0000 TDB 
  -3.720043618032947E+00 -3.923757783214926E+00  9.948379686446174E-02
   5.386907602693362E-03 -4.832687662287961E-03 -1.004372465231221E-04
2458232.500000000 = A.D. 2018-Apr-24 00:00:00.0000 TDB 
  -3.693022498150416E+00 -3.947829389458182E+00  9.897929220461642E-02
   5.421501463267356E-03 -4.795914005850298E-03 -1.013639167528990E-04
2458237.500000000 = A.D. 2018-Apr-29 00:00:00.0000 TDB 
  -3.665828993669469E+00 -3.971716516020388E+00  9.847016473918005E-02
   5.455861162431178E-03 -4.758895997935577E-03 -1.022863616350852E-04
2458242.500000000 = A.D. 2018-May-04 00:00:00.0000 TDB 
  -3.638464279588893E+00 -3.995417944273866E+00  9.795643570173285E-02
   5.489985024031106E-03 -4.721634892166928E-03 -1.032045384379362E-04
2458247.500000000 = A.D. 2018-May-09 00:00:00.0000 TDB 
  -3.610929539280072E+00 -4.018932461885195E+00  9.743812653943688E-02
   5.523871375193795E-03 -4.684131952631686E-03 -1.041184044601919E-04
2458252.500000000 = A.D. 2018-May-14 00:00:00.0000 TDB 
  -3.583225964470420E+00 -4.042258862867642E+00  9.691525891288037E-02
   5.557518546391339E-03 -4.646388453923248E-03 -1.050279170339814E-04
2458257.500000000 = A.D. 2018-May-19 00:00:00.0000 TDB 
  -3.555354755226492E+00 -4.065395947633796E+00  9.638785469590011E-02
   5.590924871505257E-03 -4.608405681188193E-03 -1.059330335275725E-04
2458262.500000000 = A.D. 2018-May-24 00:00:00.0000 TDB 
  -3.527317119936786E+00 -4.088342523048484E+00  9.585593597539827E-02
   5.624088687886226E-03 -4.570184930184025E-03 -1.068337113466927E-04
2458267.500000000 = A.D. 2018-May-29 00:00:00.0000 TDB 
  -3.499114275294251E+00 -4.111097402481959E+00  9.531952505115127E-02
   5.657008336413591E-03 -4.531727507331969E-03 -1.077299079362411E-04
2458272.500000000 = A.D. 2018-Jun-03 00:00:00.0000 TDB 
  -3.470747446278516E+00 -4.133659405863382E+00  9.477864443561400E-02
   5.689682161542720E-03 -4.493034729785237E-03 -1.086215807801728E-04
2458277.500000000 = A.D. 2018-Jun-08 00:00:00.0000 TDB 
  -3.442217866137877E+00 -4.156027359734602E+00  9.423331685372319E-02
   5.722108511363286E-03 -4.454107925473271E-03 -1.095086874012407E-04
2458282.500000000 = A.D. 2018-Jun-13 00:00:00.0000 TDB 
  -3.413526776370951E+00 -4.178200097304154E+00  9.368356524270373E-02
   5.754285737669321E-03 -4.414948433147710E-03 -1.103911853625233E-04
2458287.500000000 = A.D. 2018-Jun-18 00:00:00.0000 TDB 
  -3.384675426707966E+00 -4.200176458501509E+00  9.312941275185598E-02
   5.786212196034698E-03 -4.375557602445607E-03 -1.112690322707165E-04
2458292.500000000 = A.D. 2018-Jun-23 00:00:00.0000 TDB 
  -3.355665075091689E+00 -4.221955290031716E+00  9.257088274233037E-02
   5.817886245876720E-03 -4.335936793978245E-03 -1.121421857799038E-04
2458297.500000000 = A.D. 2018-Jun-28 00:00:00.0000 TDB 
  -3.326496987658160E+00 -4.243535445430549E+00  9.200799878688844E-02
   5.849306250470792E-03 -4.296087379437843E-03 -1.130106035912944E-04
2458302.500000000 = A.D. 2018-Jul-03 00:00:00.0000 TDB 
  -3.297172438717362E+00 -4.264915785120094E+00  9.144078466967304E-02
   5.880470576965444E-03 -4.256010741669785E-03 -1.138742434506615E-04
2458307.500000000 = A.D. 2018-Jul-08 00:00:00.0000 TDB 
  -3.267692710733831E+00 -4.286095176464652E+00  9.086926438599204E-02
   5.911377596395135E-03 -4.215708274718668E-03 -1.147330631452105E-04
2458312.500000000 = A.D. 2018-Jul-13 00:00:00.0000 TDB 
  -3.238059094307151E+00 -4.307072493826785E+00  9.029346214212131E-02
   5.942025683713094E-03 -4.175181383844811E-03 -1.155870205007765E-04
2458317.500000000 = A.D. 2018-Jul-18 00:00:00.0000 TDB 
  -3.208272888152234E+00 -4.327846618623405E+00  8.971340235511265E-02
   5.972413217845398E-03 -4.134431485528054E-03 -1.164360733805859E-04
2458322.500000000 = A.D. 2018-Jul-23 00:00:00.0000 TDB 
  -3.178335399079279E+00 -4.348416439381859E+00  8.912910965260953E-02
   6.002538581766792E-03 -4.093460007460843E-03 -1.172801796857256E-04
2458327.500000000 = A.D. 2018-Jul-28 00:00:00.0000 TDB 
  -3.148247941973293E+00 -4.368780851795986E+00  8.854060887264768E-02
   6.032400162594439E-03 -4.052268388551323E-03 -1.181192973572068E-04
2458332.500000000 = A.D. 2018-Aug-02 00:00:00.0000 TDB 
  -3.118011839773123E+00 -4.388938758782237E+00  8.794792506345564E-02
   6.061996351693869E-03 -4.010858078936194E-03 -1.189533843792089E-04
2458337.500000000 = A.D. 2018-Aug-07 00:00:00.0000 TDB 
  -3.087628423449946E+00 -4.408889070535872E+00  8.735108348322274E-02
   6.091325544786645E-03 -3.969230540011681E-03 -1.197823987828737E-04
2458342.500000000 = A.D. 2018-Aug-12 00:00:00.0000 TDB 
  -3.057099031985215E+00 -4.428630704587386E+00  8.675010959985695E-02
   6.120386142056043E-03 -3.927387244485761E-03 -1.206062986501833E-04
2458347.500000000 = A.D. 2018-Aug-17 00:00:00.0000 TDB 
  -3.026425012348118E+00 -4.448162585859234E+00  8.614502909072422E-02
   6.149176548240608E-03 -3.885329676444884E-03 -1.214250421173947E-04
2458352.500000000 = A.D. 2018-Aug-22 00:00:00.0000 TDB 
  -2.995607719472590E+00 -4.467483646722909E+00  8.553586784236411E-02
   6.177695172714119E-03 -3.843059331433782E-03 -1.222385873778659E-04
2458357.500000000 = A.D. 2018-Aug-27 00:00:00.0000 TDB 
  -2.964648516233970E+00 -4.486592827056458E+00  8.492265195020716E-02
   6.205940429549858E-03 -3.800577716541554E-03 -1.230468926829724E-04
2458362.500000000 = A.D. 2018-Sep-01 00:00:00.0000 TDB 
  -2.933548773425377E+00 -4.505489074302389E+00  8.430540771827963E-02
   6.233910737573304E-03 -3.757886350476938E-03 -1.238499163426271E-04
